[{"OBJECT_NAME":"STARLINK-2607","OBJECT_ID":"2021-038AQ","EPOCH":"2026-03-10T00:00:02.999808","MEAN_MOTION":15.2934532,"ECCENTRICITY":0.00013108,"INCLINATION":53.1591,"RA_OF_ASC_NODE":331.3891,"ARG_OF_PERICENTER":90.0816,"MEAN_ANOMALY":260.4954,"EPHEMERIS_TYPE":0,"CLASSIFICATION_TYPE":"U","NORAD_CAT_ID":48391,"ELEMENT_SET_NO":999,"REV_AT_EPOCH":545,"BSTAR":0.0001037746,"MEAN_MOTION_DOT":2.639e-5,"MEAN_MOTION_DDOT":0},{"OBJECT_NAME":"TRANSPORTER-12 OBJECT AZ","OBJECT_ID":"2025-009AZ","EPOCH":"2026-03-09T17:02:46.667040","MEAN_MOTION":15.30349724,"ECCENTRICITY":9.87e-5,"INCLINATION":97.3981,"RA_OF_ASC_NODE":151.9913,"ARG_OF_PERICENTER":45.3581,"MEAN_ANOMALY":314.774,"EPHEMERIS_TYPE":0,"CLASSIFICATION_TYPE":"U","NORAD_CAT_ID":62656,"ELEMENT_SET_NO":999,"REV_AT_EPOCH":6379,"BSTAR":0.00054902545,"MEAN_MOTION_DOT":0.00016057,"MEAN_MOTION_DDOT":0}]
